ZHONGXING-4A            
1 60606U 24151A   26147.46087708 -.00000356  00000+0  00000+0 0  9994
2 60606   1.3660 271.0957 0000803 173.7614  84.2751  1.00268778  6548
HULIANWAN GAOGUI-03 (H*)
1 61503U 24181A   26147.56471971 -.00000235  00000+0  00000+0 0  9990
2 61503   0.0454   1.6047 0001169  85.4957 284.1706  1.00273921  6619
DSN-3 (KIRAMEKI-3)      
1 61733U 24198A   26147.54769161 -.00000244  00000+0  00000+0 0  9992
2 61733   0.0195 303.1239 0000508 184.5634  98.6561  1.00271334  5711
KOREASAT 6A             
1 61910U 24206A   26147.46044375 -.00000356  00000+0  00000+0 0  9997
2 61910   0.0144 266.8534 0000916 147.6156 112.3290  1.00271602  5639
OPTUS-X (ADS-01)        
1 62006U 24212A   26147.48516806 -.00000137  00000+0  00000+0 0  9993
2 62006   0.0166 312.8689 0001680 145.4985 117.7335  1.00271551  5551
GSAT-N2 (GSAT-20)       
1 62028U 24214A   26147.56784910 -.00000013  00000+0  00000+0 0  9994
2 62028   0.0305 248.6479 0002090 178.8081  90.0636  1.00273888  5693
SXM-9                   
1 62259U 24234A   26147.49182691 -.00000199  00000+0  00000+0 0  9997
2 62259   0.0135 329.0596 0004782 345.2310  22.6665  1.00271707  5364
TJS-12                  
1 62374U 24246A   26147.48644587 -.00000226  00000+0  00000+0 0  9995
2 62374   0.7149 297.3305 0002170  75.1546 194.1287  1.00268226  5354
NUVIEW ALPHA            
1 62455U 24252B   26147.49226024 -.00000209  00000+0  00000+0 0  9996
2 62455   0.0617  39.4198 0001335   8.5234 291.2214  1.00272648  3617
AGILA                   
1 62456U 24252C   26147.32493487 -.00000176  00000+0  00000+0 0  9991
2 62456   0.0583 111.3408 0001395 338.5339  64.1376  1.00271992  4957
NUVIEW BRAVO            
1 62457U 24252D   26147.49226024 -.00000209  00000+0  00000+0 0  9998
2 62457   0.0714 136.8805 0001992 331.8114 230.4586  1.00271381  3588
THURAYA-4               
1 62483U 25001A   26147.51748036  .00000145  00000+0  00000+0 0  9993
2 62483   0.0425 105.6424 0000125 280.0445  89.9993  1.00273894  3979
SHIJIAN-25 (SJ-25)      
1 62485U 25002A   26146.61075406 -.00000347  00000+0  00000+0 0  9995
2 62485   5.0640  61.3034 0051755 171.4107 358.7340  1.00267198  5147
TJS-14                  
1 62804U 25017A   26147.51236701  .00000122  00000+0  00000+0 0  9993
2 62804   0.8284 294.2869 0000191 166.0126 347.6470  1.00276167  5069
SPAINSAT NG I           
1 62852U 25021A   26147.51418703  .00000158  00000+0  00000+0 0  9994
2 62852   0.0169 316.9793 0000122  80.3506  61.8360  1.00271511  3786
QZS-6 (MICHIBIKI-6)     
1 62876U 25023A   26147.52666706 -.00000227  00000+0  00000+0 0  9999
2 62876   0.0120 328.9089 0002490  99.6359  96.6528  1.00270826  4746
ZHONGXING-10R           
1 63075U 25036A   26147.45931708 -.00000346  00000+0  00000+0 0  9996
2 63075   0.0679 257.6817 0003317 235.2900  27.8874  1.00269260  4754
TJS-15                  
1 63157U 25045A   26146.74312611 -.00000261  00000+0  00000+0 0  9990
2 63157   0.2830  85.0413 0005730 296.3845 224.8191  1.00273010  4544
TIANLIAN 2-04           
1 63361U 25062A   26147.53996215 -.00000130  00000+0  00000+0 0  9997
2 63361   4.4261 274.7373 0031797  11.1943 233.6403  1.00271551  4396
TJS-16                  
1 63397U 25064A   26146.68502105 -.00000102  00000+0  00000+0 0  9993
2 63397   1.0447  81.5617 0004060 288.9608 280.9059  1.00272597  4173
TJS-17                  
1 63524U 25073A   26146.68580105 -.00000066  00000+0  00000+0 0  9990
2 63524   1.0105  82.8547 0002812 293.4895 279.2947  1.00271875  4078
TIANLIAN 2-05           
1 63662U 25084A   26146.94241447  .00000126  00000+0  00000+0 0  9993
2 63662   4.5036 280.0813 0003565 135.3922 188.6557  1.00274085  4167
TJS-19                  
1 63924U 25097A   26146.75245580 -.00000276  00000+0  00000+0 0  9996
2 63924   3.3218 317.1144 0001546 249.7678  89.5925  1.00275626  3924
CHINASAT 3B             
1 64062U 25106A   26147.47060742 -.00000039  00000+0  00000+0 0  9993
2 64062   0.0351 118.2621 0002528 343.1947 120.3056  1.00271416  3853
SXM-10                  
1 64290U 25122A   26147.48576022 -.00000011  00000+0  00000+0 0  9998
2 64290   0.0258  31.4128 0001966 343.6096 288.7310  1.00271307  3474
COSMOS 2589             
1 64467U 25131A   26146.67261147 -.00000288  00000+0  00000+0 0  9999
2 64467   0.0533  56.6283 0001130  94.2992  73.4737  1.00272071  3341
CHINASAT 9C             
1 64470U 25132A   26147.52701374 -.00000241  00000+0  00000+0 0  9999
2 64470   0.0391 128.5282 0003135 293.6609 104.8363  1.00272363  3946
MTG-S1                  
1 64723U 25143A   26147.29416808 -.00000027  00000+0  00000+0 0  9993
2 64723   0.6221 334.6814 0001422  28.9216 343.6980  1.00270456  3215
DROR 1                  
1 64784U 25148A   26147.36530310 -.00000028  00000+0  00000+0 0  9999
2 64784   0.0526  85.9658 0003172 298.8783 347.5872  1.00271446  3085
SHIYAN-29               
1 65486U 25196A   26147.11275119 -.00000278  00000+0  00000+0 0  9995
2 65486  28.8017  18.8022 0009921 172.6344 188.6039  1.00260990  2673
NUSANTARA LIMA (NUSANT*)
1 65588U 25205A   26147.31722152 -.00000352  00000+0  00000+0 0  9998
2 65588   0.0293 123.8156 0000359 342.1095   6.0141  1.00271735  2511
TJS-20                  
1 66142U 25238A   26147.52112037  .00000027  00000+0  00000+0 0  9997
2 66142   5.5147 299.6427 0004508 144.4921  50.9502  1.00269937  2127
CMS-03 (GSAT-7R)        
1 66311U 25249B   26147.53953220 -.00000070  00000+0  00000+0 0  9994
2 66311   0.0505 262.4773 0002998 133.0261 117.7877  1.00272286  2147
VIASAT-3 F2             
1 66454U 25261A   26147.49304024 -.00000227  00000+0  00000+0 0  9997
2 66454   0.0336 163.2994 0000452 289.6211 250.6481  1.00270016  2581
SHIJIAN-28 (SJ-28)      
1 66549U 25277A   26147.38922322 -.00000355  00000+0  00000+0 0  9996
2 66549   4.5905 272.4633 0000704  29.8527 199.6345  1.00275157  1945
TJS-22                  
1 66990U 25290A   26146.93173483 -.00000003  00000+0  00000+0 0  9997
2 66990   1.5806 286.3063 0002034 335.7441  24.3511  1.00270226  1812
TJS-23                  
1 67226U 25306A   26146.66069588  .00000014  00000+0  00000+0 0  9999
2 67226   5.6370 297.6004 0004771 157.5618 202.4120  1.00270173  1672
FENGYUN 4C              
1 67246U 25312A   26147.53508264 -.00000317  00000+0  00000+0 0  9991
2 67246   0.0110  87.9686 0000611  61.1343  61.6220  1.00271807  1575
SHIJIAN-29A (SJ-29A)    
1 67302U 25315A   26147.16687208 -.00000069  00000+0  00000+0 0  9996
2 67302   3.3461  95.6135 0003037 335.5156 307.5427  1.00274838  1403
SHIJIAN-29B (SJ-29B)    
1 67403U 25315C   26146.95298153 -.00000070  00000+0  00000+0 0  9993
2 67403   3.3447  95.6141 0007730 352.3553 213.5502  1.00273931  1478
ELEKTRO-L 5             
1 67756U 26028A   26147.10910234 -.00000093  00000+0  00000+0 0  9990
2 67756   0.2927 304.5517 0001430 183.3313 232.1316  1.00271319  1045
JAM-E JAM 1             
1 67757U 26028B   26147.51548703  .00000162  00000+0  00000+0 0  9990
2 67757   0.3037 296.9494 0000754 319.2835 208.4237  1.00266294   913
ECHOSTAR 25             
1 68126U 26045A   26147.48697354 -.00000050  00000+0  00000+0 0  9990
2 68126   0.0109 337.2956 0001728  88.0318 245.0361  1.00271090   782
